{"type": "FeatureCollection", "metadata": {"source": "Copernicus Emergency Management Service - European Drought Observatory (EDO) / JRC", "source_url": "https://joint-research-centre.ec.europa.eu/european-and-global-drought-observatories/current-drought-situation-europe_en", "wms_service": "https://drought.emergency.copernicus.eu/api/wms", "wms_layer": "cdiad", "fetched_at": "2026-04-07T15:05:06.040535+00:00", "analysis_date": "2026-03-26", "official_label": "Copernicus EDO Combined Drought Indicator (CDI) v4.1 - Europe & Mediterranean", "description": "Current drought conditions across Europe and the Mediterranean based on the Combined Drought Indicator (CDI) v4.1. Long-term drought conditions remained stable in mid-March 2026. Temperatures above average with short warm spells in north-eastern Europe.", "cdi_legend": {"0": "No drought / Recovery", "1": "Watch (developing drought stress)", "2": "Warning (significant drought)", "3": "Alert (severe drought)"}, "total_points": 25, "note": "For full raster CDI data, use the WMS service with layer 'cdiad'. Technical issues noted in western Russia CDI reliability."}, "features": [{"type": "Feature", "geometry": {"type": "Point", "coordinates": [-5.0, 34.0]}, "properties": {"location": "Northern Morocco", "country": "Morocco", "region": "Northern Africa", "cdi_level": 3, "cdi_class": "Alert (severe drought)", "indicator": "Combined Drought Indicator (CDI) v4.1", "analysis_date": "2026-03-26", "source": "Copernicus EDO / JRC"}}, {"type": "Feature", "geometry": {"type": "Point", "coordinates": [3.0, 36.5]}, "properties": {"location": "Northern Algeria", "country": "Algeria", "region": "Northern Africa", "cdi_level": 3, "cdi_class": "Alert (severe drought)", "indicator": "Combined Drought Indicator (CDI) v4.1", "analysis_date": "2026-03-26", "source": "Copernicus EDO / JRC"}}, {"type": "Feature", "geometry": {"type": "Point", "coordinates": [9.5, 36.8]}, "properties": {"location": "Northern Tunisia", "country": "Tunisia", "region": "Northern Africa", "cdi_level": 3, "cdi_class": "Alert (severe drought)", "indicator": "Combined Drought Indicator (CDI) v4.1", "analysis_date": "2026-03-26", "source": "Copernicus EDO / JRC"}}, {"type": "Feature", "geometry": {"type": "Point", "coordinates": [14.0, 32.5]}, "properties": {"location": "Northern Libya", "country": "Libya", "region": "Northern Africa", "cdi_level": 3, "cdi_class": "Alert (severe drought)", "indicator": "Combined Drought Indicator (CDI) v4.1", "analysis_date": "2026-03-26", "source": "Copernicus EDO / JRC"}}, {"type": "Feature", "geometry": {"type": "Point", "coordinates": [36.5, 35.0]}, "properties": {"location": "Western Syria", "country": "Syria", "region": "Eastern Mediterranean", "cdi_level": 3, "cdi_class": "Alert (severe drought)", "indicator": "Combined Drought Indicator (CDI) v4.1", "analysis_date": "2026-03-26", "source": "Copernicus EDO / JRC"}}, {"type": "Feature", "geometry": {"type": "Point", "coordinates": [30.0, 35.5]}, "properties": {"location": "Eastern Mediterranean coast", "country": "Eastern Mediterranean", "region": "Eastern Mediterranean", "cdi_level": 3, "cdi_class": "Alert (severe drought)", "indicator": "Combined Drought Indicator (CDI) v4.1", "analysis_date": "2026-03-26", "source": "Copernicus EDO / JRC"}}, {"type": "Feature", "geometry": {"type": "Point", "coordinates": [5.3, 52.1]}, "properties": {"location": "Netherlands", "country": "Netherlands", "region": "Europe", "cdi_level": 2, "cdi_class": "Warning", "indicator": "Combined Drought Indicator (CDI) v4.1", "analysis_date": "2026-03-26", "source": "Copernicus EDO / JRC"}}, {"type": "Feature", "geometry": {"type": "Point", "coordinates": [4.4, 50.8]}, "properties": {"location": "Belgium", "country": "Belgium", "region": "Europe", "cdi_level": 2, "cdi_class": "Warning", "indicator": "Combined Drought Indicator (CDI) v4.1", "analysis_date": "2026-03-26", "source": "Copernicus EDO / JRC"}}, {"type": "Feature", "geometry": {"type": "Point", "coordinates": [10.4, 53.5]}, "properties": {"location": "Northern Germany", "country": "Germany", "region": "Europe", "cdi_level": 2, "cdi_class": "Warning", "indicator": "Combined Drought Indicator (CDI) v4.1", "analysis_date": "2026-03-26", "source": "Copernicus EDO / JRC"}}, {"type": "Feature", "geometry": {"type": "Point", "coordinates": [17.0, 52.0]}, "properties": {"location": "Western Poland", "country": "Poland", "region": "Europe", "cdi_level": 2, "cdi_class": "Warning", "indicator": "Combined Drought Indicator (CDI) v4.1", "analysis_date": "2026-03-26", "source": "Copernicus EDO / JRC"}}, {"type": "Feature", "geometry": {"type": "Point", "coordinates": [19.5, 47.2]}, "properties": {"location": "Hungary", "country": "Hungary", "region": "Europe", "cdi_level": 2, "cdi_class": "Warning", "indicator": "Combined Drought Indicator (CDI) v4.1", "analysis_date": "2026-03-26", "source": "Copernicus EDO / JRC"}}, {"type": "Feature", "geometry": {"type": "Point", "coordinates": [25.0, 45.9]}, "properties": {"location": "Romania", "country": "Romania", "region": "Europe", "cdi_level": 2, "cdi_class": "Warning", "indicator": "Combined Drought Indicator (CDI) v4.1", "analysis_date": "2026-03-26", "source": "Copernicus EDO / JRC"}}, {"type": "Feature", "geometry": {"type": "Point", "coordinates": [17.5, 44.5]}, "properties": {"location": "North-western Balkans", "country": "Balkans", "region": "Europe", "cdi_level": 2, "cdi_class": "Warning", "indicator": "Combined Drought Indicator (CDI) v4.1", "analysis_date": "2026-03-26", "source": "Copernicus EDO / JRC"}}, {"type": "Feature", "geometry": {"type": "Point", "coordinates": [24.9, 35.2]}, "properties": {"location": "Crete", "country": "Greece", "region": "Europe", "cdi_level": 2, "cdi_class": "Warning", "indicator": "Combined Drought Indicator (CDI) v4.1", "analysis_date": "2026-03-26", "source": "Copernicus EDO / JRC"}}, {"type": "Feature", "geometry": {"type": "Point", "coordinates": [29.0, 39.9]}, "properties": {"location": "Western Turkey", "country": "Turkey", "region": "Europe", "cdi_level": 2, "cdi_class": "Warning", "indicator": "Combined Drought Indicator (CDI) v4.1", "analysis_date": "2026-03-26", "source": "Copernicus EDO / JRC"}}, {"type": "Feature", "geometry": {"type": "Point", "coordinates": [-2.5, 55.9]}, "properties": {"location": "Northern UK", "country": "United Kingdom", "region": "Europe", "cdi_level": 2, "cdi_class": "Warning", "indicator": "Combined Drought Indicator (CDI) v4.1", "analysis_date": "2026-03-26", "source": "Copernicus EDO / JRC"}}, {"type": "Feature", "geometry": {"type": "Point", "coordinates": [26.0, 58.0]}, "properties": {"location": "North-eastern Europe", "country": "Baltic States", "region": "Europe", "cdi_level": 1, "cdi_class": "Watch", "indicator": "Combined Drought Indicator (CDI) v4.1", "analysis_date": "2026-03-26", "source": "Copernicus EDO / JRC"}}, {"type": "Feature", "geometry": {"type": "Point", "coordinates": [14.5, 47.5]}, "properties": {"location": "Austria", "country": "Austria", "region": "Europe", "cdi_level": 1, "cdi_class": "Watch", "indicator": "Combined Drought Indicator (CDI) v4.1", "analysis_date": "2026-03-26", "source": "Copernicus EDO / JRC"}}, {"type": "Feature", "geometry": {"type": "Point", "coordinates": [13.4, 51.3]}, "properties": {"location": "Eastern Germany", "country": "Germany", "region": "Europe", "cdi_level": 1, "cdi_class": "Watch", "indicator": "Combined Drought Indicator (CDI) v4.1", "analysis_date": "2026-03-26", "source": "Copernicus EDO / JRC"}}, {"type": "Feature", "geometry": {"type": "Point", "coordinates": [10.0, 46.8]}, "properties": {"location": "Alps region", "country": "Alps", "region": "Europe", "cdi_level": 1, "cdi_class": "Watch", "indicator": "Combined Drought Indicator (CDI) v4.1", "analysis_date": "2026-03-26", "source": "Copernicus EDO / JRC"}}, {"type": "Feature", "geometry": {"type": "Point", "coordinates": [2.3, 46.6]}, "properties": {"location": "Central France", "country": "France", "region": "Europe", "cdi_level": 0, "cdi_class": "No drought / Recovery", "indicator": "Combined Drought Indicator (CDI) v4.1", "analysis_date": "2026-03-26", "source": "Copernicus EDO / JRC"}}, {"type": "Feature", "geometry": {"type": "Point", "coordinates": [15.0, 49.5]}, "properties": {"location": "Central Europe", "country": "Central Europe", "region": "Europe", "cdi_level": 0, "cdi_class": "No drought / Recovery", "indicator": "Combined Drought Indicator (CDI) v4.1", "analysis_date": "2026-03-26", "source": "Copernicus EDO / JRC"}}, {"type": "Feature", "geometry": {"type": "Point", "coordinates": [15.0, 57.0]}, "properties": {"location": "Southern Scandinavia", "country": "Scandinavia", "region": "Europe", "cdi_level": 0, "cdi_class": "No drought / Recovery", "indicator": "Combined Drought Indicator (CDI) v4.1", "analysis_date": "2026-03-26", "source": "Copernicus EDO / JRC"}}, {"type": "Feature", "geometry": {"type": "Point", "coordinates": [-3.7, 40.4]}, "properties": {"location": "Iberian Peninsula", "country": "Spain", "region": "Europe", "cdi_level": 0, "cdi_class": "No drought / Recovery", "indicator": "Combined Drought Indicator (CDI) v4.1", "analysis_date": "2026-03-26", "source": "Copernicus EDO / JRC"}}, {"type": "Feature", "geometry": {"type": "Point", "coordinates": [12.5, 42.5]}, "properties": {"location": "Italy", "country": "Italy", "region": "Europe", "cdi_level": 0, "cdi_class": "No drought / Recovery", "indicator": "Combined Drought Indicator (CDI) v4.1", "analysis_date": "2026-03-26", "source": "Copernicus EDO / JRC"}}]}