{"type": "FeatureCollection", "metadata": {"source": "GDACS - Global Disaster Alerting Coordination System (UN/EC)", "source_url": "https://www.gdacs.org/gdacsapi/api/events/geteventlist/MAP?eventtypes=EQ,TC,FL,VO,WF&maxResults=50", "fetched_at": "2026-04-07T15:00:28.897913Z", "official_label": "GDACS Active Disaster Alerts", "description": "Global disaster alerts from the UN/EC GDACS system including earthquakes, tropical cyclones, floods, volcanoes, and wildfires", "event_types_requested": ["EQ", "TC", "FL", "VO", "WF"], "total_events": 15}, "features": [{"type": "Feature", "geometry": {"type": "Point", "coordinates": [67.5317602, 27.9463141]}, "properties": {"event_type": "Flood", "event_id": 1103821, "episode": 2, "alert_level": "Green", "severity": 0.0, "country": "Pakistan", "source_agency": "GLOFAS", "date_start": "2026-03-25", "date_end": "2026-04-04"}}, {"type": "Feature", "geometry": {"type": "Point", "coordinates": [-75.5736, 6.2443]}, "properties": {"event_type": "Flood", "event_id": 1103831, "episode": 1, "alert_level": "Green", "severity": 0.0, "country": "Colombia", "source_agency": "GLOFAS", "date_start": "2026-04-03", "date_end": "2026-04-05"}}, {"type": "Feature", "geometry": {"type": "Point", "coordinates": [-65.2038, -26.8304]}, "properties": {"event_type": "Flood", "event_id": 1103822, "episode": 3, "alert_level": "Green", "severity": 0.0, "country": "Argentina", "source_agency": "GLOFAS", "date_start": "2026-03-28", "date_end": "2026-04-06"}}, {"type": "Feature", "geometry": {"type": "Point", "coordinates": [15.513, -9.6499]}, "properties": {"event_type": "Flood", "event_id": 1103828, "episode": 4, "alert_level": "Green", "severity": 0.0, "country": "Angola", "source_agency": "GLOFAS", "date_start": "2026-03-28", "date_end": "2026-04-06"}}, {"type": "Feature", "geometry": {"type": "Point", "coordinates": [48.2889, 41.4499]}, "properties": {"event_type": "Flood", "event_id": 1103818, "episode": 2, "alert_level": "Green", "severity": 0.0, "country": "Azerbaijan", "source_agency": "GLOFAS", "date_start": "2026-03-27", "date_end": "2026-04-07"}}, {"type": "Feature", "geometry": {"type": "Point", "coordinates": [47.5049, 42.983]}, "properties": {"event_type": "Flood", "event_id": 1103819, "episode": 3, "alert_level": "Green", "severity": 0.0, "country": "Russia", "source_agency": "GLOFAS", "date_start": "2026-03-27", "date_end": "2026-04-07"}}, {"type": "Feature", "geometry": {"type": "Point", "coordinates": [68.913, -21.8707]}, "properties": {"event_type": "Earthquake", "event_id": 1533187, "episode": 1697569, "alert_level": "Green", "magnitude": 5.5, "depth_km": 10, "country": "Mid-Indian Ridge", "source_agency": "NEIC", "date": "2026-04-04T04:55:32Z"}}, {"type": "Feature", "geometry": {"type": "Point", "coordinates": [121.6455, 23.9901]}, "properties": {"event_type": "Earthquake", "event_id": 1533366, "episode": 1697764, "alert_level": "Green", "magnitude": 5.5, "depth_km": 22.066, "country": "Taiwan", "source_agency": "NEIC", "date": "2026-04-04T17:14:57Z"}}, {"type": "Feature", "geometry": {"type": "Point", "coordinates": [130.8226, -25.9274]}, "properties": {"event_type": "Earthquake", "event_id": 1533376, "episode": 1697775, "alert_level": "Green", "magnitude": 5.5, "depth_km": 10, "country": "Australia", "source_agency": "NEIC", "date": "2026-04-04T18:26:13Z"}}, {"type": "Feature", "geometry": {"type": "Point", "coordinates": [-177.8645, -32.0412]}, "properties": {"event_type": "Earthquake", "event_id": 1533580, "episode": 1697992, "alert_level": "Green", "magnitude": 5.5, "depth_km": 10, "country": "South of Kermadec Islands", "source_agency": "NEIC", "date": "2026-04-05T13:22:15Z"}}, {"type": "Feature", "geometry": {"type": "Point", "coordinates": [70.852, 36.5479]}, "properties": {"event_type": "Earthquake", "event_id": 1533026, "episode": 1697401, "alert_level": "Green", "magnitude": 5.8, "depth_km": 186.371, "country": "Afghanistan", "source_agency": "NEIC", "date": "2026-04-03T16:12:58Z"}}, {"type": "Feature", "geometry": {"type": "Point", "coordinates": [126.0732, 1.1109]}, "properties": {"event_type": "Earthquake", "event_id": 1533130, "episode": 1697512, "alert_level": "Green", "magnitude": 5.9, "depth_km": 48.684, "country": "Indonesia", "source_agency": "NEIC", "date": "2026-04-04T01:35:00Z"}}, {"type": "Feature", "geometry": {"type": "Point", "coordinates": [-129.111, -54.994]}, "properties": {"event_type": "Earthquake", "event_id": 1533793, "episode": 1698236, "alert_level": "Green", "magnitude": 5.9, "depth_km": 10, "country": "Pacific-Antarctic Ridge", "source_agency": "NEIC", "date": "2026-04-06T11:18:37Z"}}, {"type": "Feature", "geometry": {"type": "Point", "coordinates": [126.1031, 4.8892]}, "properties": {"event_type": "Earthquake", "event_id": 1533278, "episode": 1697666, "alert_level": "Green", "magnitude": 6.0, "depth_km": 99.568, "country": "Philippines", "source_agency": "NEIC", "date": "2026-04-04T10:34:31Z"}}, {"type": "Feature", "geometry": {"type": "Point", "coordinates": [71.38, -29.68]}, "properties": {"event_type": "Tropical Cyclone", "event_id": 1001267, "episode": 16, "alert_level": "Green", "name": "INDUSA-26", "classification": "Post-tropical Depression", "max_wind_kmh": 148, "country": "Off-shore (No land impact)", "source_agency": "RSMC", "date_start": "2026-04-01", "date_end": "2026-04-05"}}]}