{"type":"FeatureCollection","metadata":{"source":"Hub Eau hydrometrie","count":100,"generated":"2026-04-07T13:40:22.714Z"},"features":[{"type":"Feature","geometry":{"type":"Point","coordinates":[6.796285291,47.866921289]},"properties":{"station_code":"A402061001","station_name":"La Moselle à Fresse-sur-Moselle","river_name":"La Moselle","height_m":"0.04","obs_date":"2026-04-07T13:30:00Z"}},{"type":"Feature","geometry":{"type":"Point","coordinates":[6.685918446,47.909444585]},"properties":{"station_code":"A405062001","station_name":"La Moselle à Rupt-sur-Moselle","river_name":"La Moselle","height_m":"0.56","obs_date":"2026-04-07T13:30:00Z"}},{"type":"Feature","geometry":{"type":"Point","coordinates":[6.715932814,47.993393232]},"properties":{"station_code":"A414020201","station_name":"La Moselotte à Vagney [Zainvillers]","river_name":"La Moselotte","height_m":"0.54","obs_date":"2026-04-07T13:30:00Z"}},{"type":"Feature","geometry":{"type":"Point","coordinates":[6.690262579,48.053182554]},"properties":{"station_code":"A417301001","station_name":"La Cleurie à Cleurie","river_name":"Ruisseau de la Cleurie","height_m":"0.41","obs_date":"2026-04-07T13:30:00Z"}},{"type":"Feature","geometry":{"type":"Point","coordinates":[6.611130574,48.0670775]},"properties":{"station_code":"A420063001","station_name":"La Moselle à Saint-Nabord - Noirgueux","river_name":"La Moselle","height_m":"0.89","obs_date":"2026-04-07T13:30:00Z"}},{"type":"Feature","geometry":{"type":"Point","coordinates":[6.597121367,48.019771926]},"properties":{"station_code":"A420063002","station_name":"La Moselle à Remiremont","river_name":"La Moselle","height_m":"1.28","obs_date":"2026-04-07T13:30:00Z"}},{"type":"Feature","geometry":{"type":"Point","coordinates":[6.751787233,48.185384011]},"properties":{"station_code":"A433301001","station_name":"Le Neune à Laveline-devant-Bruyères","river_name":"Ruisseau le Neune","height_m":"0.21","obs_date":"2026-04-07T13:30:00Z"}},{"type":"Feature","geometry":{"type":"Point","coordinates":[6.603384721,48.13289237]},"properties":{"station_code":"A436203001","station_name":"La Vologne à Cheniménil","river_name":"La Vologne","height_m":"0.33","obs_date":"2026-04-07T13:30:00Z"}},{"type":"Feature","geometry":{"type":"Point","coordinates":[6.45298063,48.165666233]},"properties":{"station_code":"A443064001","station_name":"La Moselle à Épinal","river_name":"La Moselle","height_m":"0.11","obs_date":"2026-04-07T13:30:00Z"}},{"type":"Feature","geometry":{"type":"Point","coordinates":[6.391243047,48.312435289]},"properties":{"station_code":"A455000201","station_name":"La Moselle à Châtel-sur-Moselle","river_name":"La Moselle","height_m":"1.62","obs_date":"2026-04-07T13:30:00Z"}},{"type":"Feature","geometry":{"type":"Point","coordinates":[6.367099557,48.292520452]},"properties":{"station_code":"A463201001","station_name":"L'Avière à Frizon","river_name":"L'Aviere","height_m":"1.03","obs_date":"2026-04-07T13:30:00Z"}},{"type":"Feature","geometry":{"type":"Point","coordinates":[6.260215116,48.536106708]},"properties":{"station_code":"A511061001","station_name":"La Moselle à Tonnoy","river_name":"La Moselle","height_m":"1.92","obs_date":"2026-04-07T13:30:00Z"}},{"type":"Feature","geometry":{"type":"Point","coordinates":[6.263786438,48.532281282]},"properties":{"station_code":"A511061002","station_name":"La Moselle à Velle-sur-Moselle","river_name":"La Moselle","height_m":"1.28","obs_date":"2026-04-07T13:30:00Z"}},{"type":"Feature","geometry":{"type":"Point","coordinates":[6.149771693,48.213998759]},"properties":{"station_code":"A523011001","station_name":"Le Madon à Begnécourt [Moulin d'Heucheloup]","river_name":"Le Madon","height_m":"0.35","obs_date":"2026-04-07T13:30:00Z"}},{"type":"Feature","geometry":{"type":"Point","coordinates":[6.174694523,48.259607832]},"properties":{"station_code":"A524201001","station_name":"La Gitte à Velotte-et-Tatignécourt","river_name":"Ruisseau la Gitte","height_m":"0.26","obs_date":"2026-04-07T13:30:00Z"}},{"type":"Feature","geometry":{"type":"Point","coordinates":[6.136364634,48.303258474]},"properties":{"station_code":"A526102001","station_name":"Le Madon à Mirecourt - Crues","river_name":"Le Madon","height_m":"-0.04","obs_date":"2026-04-07T13:30:00Z"}},{"type":"Feature","geometry":{"type":"Point","coordinates":[6.110970958,48.50573482]},"properties":{"station_code":"A542201101","station_name":"Le Brenon à Houdreville","river_name":"Le Brenon","height_m":"0.30","obs_date":"2026-04-07T13:30:00Z"}},{"type":"Feature","geometry":{"type":"Point","coordinates":[6.131545756,48.545355659]},"properties":{"station_code":"A543101001","station_name":"Le Madon à Pulligny","river_name":"Le Madon","height_m":"0.54","obs_date":"2026-04-07T13:30:00Z"}},{"type":"Feature","geometry":{"type":"Point","coordinates":[5.896401748,48.66976408]},"properties":{"station_code":"A573061001","station_name":"La Moselle à Toul","river_name":"La Moselle","height_m":"0.52","obs_date":"2026-04-07T13:30:00Z"}},{"type":"Feature","geometry":{"type":"Point","coordinates":[7.002528782,48.184729703]},"properties":{"station_code":"A600101001","station_name":"La Meurthe à Fraize","river_name":"La Meurthe","height_m":"0.52","obs_date":"2026-04-07T13:30:00Z"}},{"type":"Feature","geometry":{"type":"Point","coordinates":[6.845062409,48.402032182]},"properties":{"station_code":"A615103001","station_name":"La Meurthe à Raon-l'Étape","river_name":"La Meurthe","height_m":"0.79","obs_date":"2026-04-07T13:30:00Z"}},{"type":"Feature","geometry":{"type":"Point","coordinates":[6.877878865,48.416320357]},"properties":{"station_code":"A623201001","station_name":"La Plaine à Raon-l'Étape [La Trouche]","river_name":"La Plaine","height_m":"0.43","obs_date":"2026-04-07T13:30:00Z"}},{"type":"Feature","geometry":{"type":"Point","coordinates":[6.738612663,48.44923718]},"properties":{"station_code":"A631101001","station_name":"La Meurthe à Baccarat - aval","river_name":"La Meurthe","height_m":"0.77","obs_date":"2026-04-07T13:30:00Z"}},{"type":"Feature","geometry":{"type":"Point","coordinates":[6.740048847,48.447732868]},"properties":{"station_code":"A631101003","station_name":"La Meurthe à Baccarat - amont","river_name":"La Meurthe","height_m":"0.61","obs_date":"2026-04-07T13:30:00Z"}},{"type":"Feature","geometry":{"type":"Point","coordinates":[6.481032756,48.582850801]},"properties":{"station_code":"A634101001","station_name":"La Meurthe à Lunéville - Aval","river_name":"La Meurthe","height_m":"0.32","obs_date":"2026-04-07T13:30:00Z"}},{"type":"Feature","geometry":{"type":"Point","coordinates":[6.843907647,48.588128336]},"properties":{"station_code":"A643112001","station_name":"La Vezouze à Blâmont - aval","river_name":"La Vezouze","height_m":"0.29","obs_date":"2026-04-07T13:30:00Z"}},{"type":"Feature","geometry":{"type":"Point","coordinates":[6.845033347,48.588299085]},"properties":{"station_code":"A643112002","station_name":"La Vezouze à Blâmont - amont","river_name":"La Vezouze","height_m":"0.35","obs_date":"2026-04-07T13:30:00Z"}},{"type":"Feature","geometry":{"type":"Point","coordinates":[6.800409068,48.518136023]},"properties":{"station_code":"A648000101","station_name":"La Blette à Montigny","river_name":"La Blette","height_m":"0.38","obs_date":"2026-04-07T13:30:00Z"}},{"type":"Feature","geometry":{"type":"Point","coordinates":[6.624852639,48.580949425]},"properties":{"station_code":"A654111001","station_name":"La Vezouze à Thiébauménil","river_name":"La Vezouze","height_m":"0.34","obs_date":"2026-04-07T13:30:00Z"}},{"type":"Feature","geometry":{"type":"Point","coordinates":[6.686053148,48.295896649]},"properties":{"station_code":"A662121201","station_name":"La Mortagne à Autrey - Gare","river_name":"La Mortagne","height_m":"0.18","obs_date":"2026-04-07T13:30:00Z"}},{"type":"Feature","geometry":{"type":"Point","coordinates":[6.613858407,48.368762829]},"properties":{"station_code":"A670121001","station_name":"La Mortagne à Roville-aux-Chênes","river_name":"La Mortagne","height_m":"0.54","obs_date":"2026-04-07T13:30:00Z"}},{"type":"Feature","geometry":{"type":"Point","coordinates":[6.524472123,48.487067749]},"properties":{"station_code":"A673122001","station_name":"La Mortagne à Gerbéviller","river_name":"La Mortagne","height_m":"0.53","obs_date":"2026-04-07T13:30:00Z"}},{"type":"Feature","geometry":{"type":"Point","coordinates":[6.410317707,48.640577052]},"properties":{"station_code":"A686000101","station_name":"Le Sanon à Crévic","river_name":"Le Sanon","height_m":"0.65","obs_date":"2026-04-07T13:30:00Z"}},{"type":"Feature","geometry":{"type":"Point","coordinates":[6.272227226,48.642507126]},"properties":{"station_code":"A692101001","station_name":"La Meurthe à Laneuveville-devant-Nancy [la Madeleine]","river_name":"La Meurthe","height_m":"0.36","obs_date":"2026-04-07T13:30:00Z"}},{"type":"Feature","geometry":{"type":"Point","coordinates":[6.179269355,48.710666956]},"properties":{"station_code":"A694102004","station_name":"La Meurthe à Malzéville - Limni","river_name":"La Meurthe","height_m":"1.18","obs_date":"2026-04-07T13:30:00Z"}},{"type":"Feature","geometry":{"type":"Point","coordinates":[6.121750416,48.789667836]},"properties":{"station_code":"A701061001","station_name":"La Moselle à Custines","river_name":"La Moselle Canalisee","height_m":"0.94","obs_date":"2026-04-07T13:30:00Z"}},{"type":"Feature","geometry":{"type":"Point","coordinates":[6.043284328,48.866375747]},"properties":{"station_code":"A712201001","station_name":"L'Esch à Jezainville","river_name":"Ruisseau d'Esche","height_m":"0.51","obs_date":"2026-04-07T13:30:00Z"}},{"type":"Feature","geometry":{"type":"Point","coordinates":[5.961532525,49.012193042]},"properties":{"station_code":"A735201001","station_name":"Le Rupt de Mad à Onville","river_name":"Ruisseau le Rupt de Mad","height_m":"0.90","obs_date":"2026-04-07T13:30:00Z"}},{"type":"Feature","geometry":{"type":"Point","coordinates":[6.054052977,49.031119254]},"properties":{"station_code":"A740000101","station_name":"La Moselle à Corny-sur-Moselle - Débitmètre","river_name":"La Moselle Canalisee","height_m":"3.20","obs_date":"2026-04-07T13:30:00Z"}},{"type":"Feature","geometry":{"type":"Point","coordinates":[6.054230085,49.031105749]},"properties":{"station_code":"A740000102","station_name":"La Moselle à Corny-sur-Moselle - limnimètre","river_name":"La Moselle Canalisee","height_m":"3.15","obs_date":"2026-04-07T13:30:00Z"}},{"type":"Feature","geometry":{"type":"Point","coordinates":[6.167185612,49.122321571]},"properties":{"station_code":"A743061001","station_name":"La Moselle à Metz [Pont des Morts]","river_name":"La Moselle","height_m":"2.41","obs_date":"2026-04-07T13:30:00Z"}},{"type":"Feature","geometry":{"type":"Point","coordinates":[6.567826579,48.780882803]},"properties":{"station_code":"A758102001","station_name":"La Seille à Moyenvic","river_name":"La Seille","height_m":"1.13","obs_date":"2026-04-07T13:30:00Z"}},{"type":"Feature","geometry":{"type":"Point","coordinates":[6.505677078,48.8177255]},"properties":{"station_code":"A764201001","station_name":"La Petite Seille à Château-Salins","river_name":"La Petite Seille","height_m":"-0.17","obs_date":"2026-04-07T13:30:00Z"}},{"type":"Feature","geometry":{"type":"Point","coordinates":[6.457076099,48.783978548]},"properties":{"station_code":"A770101001","station_name":"La Seille à Chambrey","river_name":"La Seille","height_m":"-0.53","obs_date":"2026-04-07T13:30:00Z"}},{"type":"Feature","geometry":{"type":"Point","coordinates":[6.227562537,48.888160213]},"properties":{"station_code":"A782101001","station_name":"La Seille à Nomeny","river_name":"La Seille","height_m":"0.52","obs_date":"2026-04-07T13:30:00Z"}},{"type":"Feature","geometry":{"type":"Point","coordinates":[6.188174925,49.100485691]},"properties":{"station_code":"A788101002","station_name":"La Seille à Metz - Pont Lothaire amont","river_name":"La Seille","height_m":"0.96","obs_date":"2026-04-07T13:30:00Z"}},{"type":"Feature","geometry":{"type":"Point","coordinates":[6.184817563,49.25589423]},"properties":{"station_code":"A793061002","station_name":"La Moselle à Hagondange","river_name":"La Moselle","height_m":"0.65","obs_date":"2026-04-07T13:30:00Z"}},{"type":"Feature","geometry":{"type":"Point","coordinates":[5.581870466,49.234439422]},"properties":{"station_code":"A800621001","station_name":"Le Ru de Vaux à Morgemoulin","river_name":"Ruisseau de Vaux","height_m":"0.25","obs_date":"2026-04-07T13:30:00Z"}},{"type":"Feature","geometry":{"type":"Point","coordinates":[5.632484128,49.213609541]},"properties":{"station_code":"A802101001","station_name":"L'Orne à Étain","river_name":"L'Orne","height_m":"0.64","obs_date":"2026-04-07T13:30:00Z"}},{"type":"Feature","geometry":{"type":"Point","coordinates":[5.876080522,49.142330429]},"properties":{"station_code":"A812020101","station_name":"L'Yron à Jarny [Droitaumont]","river_name":"L'Yron","height_m":"0.36","obs_date":"2026-04-07T13:30:00Z"}},{"type":"Feature","geometry":{"type":"Point","coordinates":[5.881716087,49.167701088]},"properties":{"station_code":"A820101001","station_name":"L'Orne à Jarny [Labry]","river_name":"L'Orne","height_m":"-1.59","obs_date":"2026-04-07T13:30:00Z"}},{"type":"Feature","geometry":{"type":"Point","coordinates":[5.883490209,49.295329372]},"properties":{"station_code":"A830020101","station_name":"Le Woigot à Tucquegnieux","river_name":"Ruisseau le Woigot","height_m":"0.11","obs_date":"2026-04-07T13:30:00Z"}},{"type":"Feature","geometry":{"type":"Point","coordinates":[5.927075058,49.26862436]},"properties":{"station_code":"A831030001","station_name":"La Vallée à Mance","river_name":"Ruisseau de la Vallee","height_m":"-0.08","obs_date":"2026-04-07T13:30:00Z"}},{"type":"Feature","geometry":{"type":"Point","coordinates":[5.933377578,49.246952959]},"properties":{"station_code":"A832201001","station_name":"Le Woigot à Briey","river_name":"Ruisseau le Woigot","height_m":"0.86","obs_date":"2026-04-07T13:30:00Z"}},{"type":"Feature","geometry":{"type":"Point","coordinates":[6.041718824,49.248631336]},"properties":{"station_code":"A840101001","station_name":"L'Orne à Moyeuvre-Grande","river_name":"L'Orne","height_m":"-0.17","obs_date":"2026-04-07T13:30:00Z"}},{"type":"Feature","geometry":{"type":"Point","coordinates":[6.003350663,49.285514869]},"properties":{"station_code":"A842020101","station_name":"Le Conroy à Moyeuvre-Petite","river_name":"Ruisseau le Conroy","height_m":"0.65","obs_date":"2026-04-07T13:30:00Z"}},{"type":"Feature","geometry":{"type":"Point","coordinates":[6.072001471,49.256392246]},"properties":{"station_code":"A843101001","station_name":"L'Orne à Rosselange","river_name":"L'Orne","height_m":"0.46","obs_date":"2026-04-07T13:30:00Z"}},{"type":"Feature","geometry":{"type":"Point","coordinates":[6.172718737,49.316716181]},"properties":{"station_code":"A850061001","station_name":"La Moselle à Uckange","river_name":"La Moselle","height_m":"0.98","obs_date":"2026-04-07T13:30:00Z"}},{"type":"Feature","geometry":{"type":"Point","coordinates":[6.154020284,49.3433312]},"properties":{"station_code":"A860304001","station_name":"Le Veymerange à Thionville","river_name":"Ruisseau le Veymerange","height_m":"0.06","obs_date":"2026-04-07T13:30:00Z"}},{"type":"Feature","geometry":{"type":"Point","coordinates":[6.03539378,49.343536813]},"properties":{"station_code":"A861202001","station_name":"La Fensch à Knutange","river_name":"La Fensch","height_m":"0.51","obs_date":"2026-04-07T13:30:00Z"}},{"type":"Feature","geometry":{"type":"Point","coordinates":[6.167345104,49.39528479]},"properties":{"station_code":"A864030001","station_name":"La Kiesel à Hettange-Grande","river_name":"Ruisseau la Kiesel","height_m":"0.45","obs_date":"2026-04-07T13:30:00Z"}},{"type":"Feature","geometry":{"type":"Point","coordinates":[6.272360241,49.391885444]},"properties":{"station_code":"A873201001","station_name":"Le Canner à Kœnigsmacker","river_name":"Ruisseau le Canner","height_m":"0.70","obs_date":"2026-04-07T13:30:00Z"}},{"type":"Feature","geometry":{"type":"Point","coordinates":[6.024384566,49.445258963]},"properties":{"station_code":"A891030101","station_name":"Le Kayl à Ottange","river_name":"Ruisseau Kaelbach","height_m":"0.34","obs_date":"2026-04-07T13:30:00Z"}},{"type":"Feature","geometry":{"type":"Point","coordinates":[6.383258017,49.02861696]},"properties":{"station_code":"A973121001","station_name":"La Nied [Française] à Ancerville","river_name":"La Nied","height_m":"0.12","obs_date":"2026-04-07T13:30:00Z"}},{"type":"Feature","geometry":{"type":"Point","coordinates":[6.421310648,49.146784283]},"properties":{"station_code":"A975201001","station_name":"La Nied [Française] à Condé-Northen [Pontigny]","river_name":"La Nied","height_m":"0.42","obs_date":"2026-04-07T13:30:00Z"}},{"type":"Feature","geometry":{"type":"Point","coordinates":[6.61424975,49.046535877]},"properties":{"station_code":"A983201001","station_name":"La Nied Allemande à Faulquemont","river_name":"La Nied Allemande","height_m":"0.27","obs_date":"2026-04-07T13:30:00Z"}},{"type":"Feature","geometry":{"type":"Point","coordinates":[6.446070936,49.142441775]},"properties":{"station_code":"A986201001","station_name":"La Nied Allemande à Varize","river_name":"La Nied Allemande","height_m":"0.91","obs_date":"2026-04-07T13:30:00Z"}},{"type":"Feature","geometry":{"type":"Point","coordinates":[5.614415096,48.240913254]},"properties":{"station_code":"B022001001","station_name":"La Meuse à Goncourt","river_name":"La Meuse","height_m":"0.46","obs_date":"2026-04-07T13:30:00Z"}},{"type":"Feature","geometry":{"type":"Point","coordinates":[5.664011145,48.224397022]},"properties":{"station_code":"B105201001","station_name":"Le Mouzon à Sommerécourt","river_name":"Le Mouzon","height_m":"0.74","obs_date":"2026-04-07T13:30:00Z"}},{"type":"Feature","geometry":{"type":"Point","coordinates":[5.710074637,48.317446134]},"properties":{"station_code":"B109201001","station_name":"Le Mouzon à Circourt-sur-Mouzon [Villars]","river_name":"Le Mouzon","height_m":"0.75","obs_date":"2026-04-07T13:30:00Z"}},{"type":"Feature","geometry":{"type":"Point","coordinates":[5.683329781,48.358619594]},"properties":{"station_code":"B110000001","station_name":"La Meuse à Neufchâteau","river_name":"La Meuse","height_m":"0.79","obs_date":"2026-04-07T13:30:00Z"}},{"type":"Feature","geometry":{"type":"Point","coordinates":[5.676028819,48.439998867]},"properties":{"station_code":"B115001001","station_name":"La Meuse à Domrémy-la-Pucelle","river_name":"La Meuse","height_m":"0.73","obs_date":"2026-04-07T13:30:00Z"}},{"type":"Feature","geometry":{"type":"Point","coordinates":[5.902062956,48.253938727]},"properties":{"station_code":"B122201001","station_name":"Le Vair à Belmont-sur-Vair","river_name":"Le Vair","height_m":"0.43","obs_date":"2026-04-07T13:30:00Z"}},{"type":"Feature","geometry":{"type":"Point","coordinates":[5.733156323,48.402742968]},"properties":{"station_code":"B128201001","station_name":"Le Vair à Soulosse-sous-Saint-Élophe","river_name":"Le Vair","height_m":"0.95","obs_date":"2026-04-07T13:30:00Z"}},{"type":"Feature","geometry":{"type":"Point","coordinates":[5.693563084,48.452420212]},"properties":{"station_code":"B130001001","station_name":"La Meuse à Maxey-sur-Meuse","river_name":"La Meuse","height_m":"0.46","obs_date":"2026-04-07T13:30:00Z"}},{"type":"Feature","geometry":{"type":"Point","coordinates":[5.678670353,48.601857218]},"properties":{"station_code":"B134001001","station_name":"La Meuse à Vaucouleurs [Chalaines]","river_name":"La Meuse","height_m":"0.11","obs_date":"2026-04-07T13:30:00Z"}},{"type":"Feature","geometry":{"type":"Point","coordinates":[5.678916146,48.601356666]},"properties":{"station_code":"B134001002","station_name":"La Meuse à Vaucouleurs [Chalaines] - amont","river_name":"La Meuse","height_m":"0.60","obs_date":"2026-04-07T13:30:00Z"}},{"type":"Feature","geometry":{"type":"Point","coordinates":[5.765529958,48.549339386]},"properties":{"station_code":"B204201001","station_name":"L'Aroffe à Vannes-le-Châtel","river_name":"Ruisseau l'Aroffe","height_m":"0.40","obs_date":"2026-04-07T13:30:00Z"}},{"type":"Feature","geometry":{"type":"Point","coordinates":[5.681394869,48.709093481]},"properties":{"station_code":"B210000101","station_name":"La Meuse à Troussey","river_name":"La Meuse","height_m":"0.44","obs_date":"2026-04-07T13:30:00Z"}},{"type":"Feature","geometry":{"type":"Point","coordinates":[5.602961919,48.768316795]},"properties":{"station_code":"B213001001","station_name":"La Meuse à Commercy","river_name":"La Meuse","height_m":"0.82","obs_date":"2026-04-07T13:30:00Z"}},{"type":"Feature","geometry":{"type":"Point","coordinates":[5.53063369,48.870992372]},"properties":{"station_code":"B222001001","station_name":"La Meuse à Saint-Mihiel","river_name":"La Meuse","height_m":"0.86","obs_date":"2026-04-07T13:30:00Z"}},{"type":"Feature","geometry":{"type":"Point","coordinates":[5.379092841,49.172261032]},"properties":{"station_code":"B301001001","station_name":"La Meuse à Belleville-sur-Meuse","river_name":"La Meuse","height_m":"0.89","obs_date":"2026-04-07T13:30:00Z"}},{"type":"Feature","geometry":{"type":"Point","coordinates":[5.386717554,49.162090062]},"properties":{"station_code":"B301001002","station_name":"La Meuse à Verdun - Pont Chaussée","river_name":"La Meuse","height_m":"1.90","obs_date":"2026-04-07T13:30:00Z"}},{"type":"Feature","geometry":{"type":"Point","coordinates":[5.178850491,49.494346826]},"properties":{"station_code":"B315002001","station_name":"La Meuse à Stenay","river_name":"La Meuse","height_m":"0.82","obs_date":"2026-04-07T13:30:00Z"}},{"type":"Feature","geometry":{"type":"Point","coordinates":[5.80343548,49.536983467]},"properties":{"station_code":"B400101001","station_name":"La Chiers à Longlaville","river_name":"La Chiers","height_m":"0.09","obs_date":"2026-04-07T13:30:00Z"}},{"type":"Feature","geometry":{"type":"Point","coordinates":[5.766603965,49.510941115]},"properties":{"station_code":"B402101001","station_name":"La Chiers à Longwy","river_name":"La Chiers","height_m":"0.32","obs_date":"2026-04-07T13:30:00Z"}},{"type":"Feature","geometry":{"type":"Point","coordinates":[5.657260509,49.475285856]},"properties":{"station_code":"B403101001","station_name":"La Chiers à Montigny-sur-Chiers","river_name":"La Chiers","height_m":"0.15","obs_date":"2026-04-07T13:30:00Z"}},{"type":"Feature","geometry":{"type":"Point","coordinates":[5.701025967,49.419378452]},"properties":{"station_code":"B413201001","station_name":"La Crusnes à Pierrepont","river_name":"La Crusnes","height_m":"1.02","obs_date":"2026-04-07T13:30:00Z"}},{"type":"Feature","geometry":{"type":"Point","coordinates":[5.460307525,49.525762461]},"properties":{"station_code":"B422431001","station_name":"Le Ton à Écouviez","river_name":"Le Thon","height_m":"1.07","obs_date":"2026-04-07T13:30:00Z"}},{"type":"Feature","geometry":{"type":"Point","coordinates":[5.440394695,49.494172723]},"properties":{"station_code":"B435201001","station_name":"L'Othain à Othe","river_name":"L'Othain","height_m":"0.82","obs_date":"2026-04-07T13:30:00Z"}},{"type":"Feature","geometry":{"type":"Point","coordinates":[5.404344638,49.402499694]},"properties":{"station_code":"B453000101","station_name":"Le Loison à Vittarville","river_name":"Le Loison","height_m":"0.39","obs_date":"2026-04-07T13:30:00Z"}},{"type":"Feature","geometry":{"type":"Point","coordinates":[5.329882234,49.48052278]},"properties":{"station_code":"B457201001","station_name":"Le Loison à Han-lès-Juvigny","river_name":"Le Loison","height_m":"0.44","obs_date":"2026-04-07T13:30:00Z"}},{"type":"Feature","geometry":{"type":"Point","coordinates":[5.312743043,49.516132934]},"properties":{"station_code":"B460101001","station_name":"La Chiers à Chauvency-le-Château","river_name":"La Chiers","height_m":"0.23","obs_date":"2026-04-07T13:30:00Z"}},{"type":"Feature","geometry":{"type":"Point","coordinates":[5.158859906,49.629367897]},"properties":{"station_code":"B463101001","station_name":"La Chiers à Carignan","river_name":"La Chiers","height_m":"1.17","obs_date":"2026-04-07T13:30:00Z"}},{"type":"Feature","geometry":{"type":"Point","coordinates":[5.084206019,49.668721571]},"properties":{"station_code":"B466010101","station_name":"La Chiers à Brévilly","river_name":"La Chiers","height_m":"0.43","obs_date":"2026-04-07T13:30:00Z"}},{"type":"Feature","geometry":{"type":"Point","coordinates":[4.936060665,49.701334161]},"properties":{"station_code":"B502001001","station_name":"La Meuse à Sedan","river_name":"La Meuse","height_m":"3.02","obs_date":"2026-04-07T13:30:00Z"}},{"type":"Feature","geometry":{"type":"Point","coordinates":[4.882921052,49.660373067]},"properties":{"station_code":"B517201001","station_name":"La Bar à Cheveuges","river_name":"La Bar","height_m":"0.82","obs_date":"2026-04-07T13:30:00Z"}},{"type":"Feature","geometry":{"type":"Point","coordinates":[4.714066451,49.727795887]},"properties":{"station_code":"B532201001","station_name":"La Vence à la Francheville","river_name":"La Vence","height_m":"0.62","obs_date":"2026-04-07T13:30:00Z"}},{"type":"Feature","geometry":{"type":"Point","coordinates":[4.715855889,49.75966562]},"properties":{"station_code":"B540001001","station_name":"La Meuse à Charleville-Mézières","river_name":"La Meuse","height_m":"2.59","obs_date":"2026-04-07T13:30:00Z"}},{"type":"Feature","geometry":{"type":"Point","coordinates":[4.752270876,49.774218453]},"properties":{"station_code":"B560010101","station_name":"La Meuse à Aiglemont","river_name":"La Meuse","height_m":"0.82","obs_date":"2026-04-07T13:30:00Z"}}]}