{"type": "FeatureCollection", "metadata": {"sources": [{"name": "GDACS - Global Disaster Alerting Coordination System (UN/EC)", "url": "https://www.gdacs.org/gdacsapi/api/events/geteventlist/MAP?eventtypes=TC", "status": "1 post-tropical cyclone found"}, {"name": "NOAA National Hurricane Center", "url": "https://www.nhc.noaa.gov/CurrentSummaries.json", "status": "Endpoint returned 404 (no active summaries)"}, {"name": "NWS Active Alerts (Hurricane/Tropical Storm)", "url": "https://api.weather.gov/alerts/active?event=Hurricane,Tropical+Storm", "status": "No active tropical cyclone alerts"}], "fetched_at": "2026-04-07T15:05:26.233519+00:00", "official_label": "Active Tropical Cyclones (Global)", "description": "Currently active or recently active tropical cyclones from GDACS and NWS sources", "total_cyclones": 1}, "features": [{"type": "Feature", "geometry": {"type": "Point", "coordinates": [71.38, -29.68]}, "properties": {"event_type": "Tropical Cyclone", "name": "INDUSA-26", "classification": "Post-tropical Depression", "alert_level": "Green", "max_wind_kmh": 148, "status": "Off-shore (No land impact)", "event_id": 1001267, "source_agency": "RSMC", "source": "GDACS", "date_start": "2026-04-01", "date_end": "2026-04-05"}}]}